SL-14 R/B               
1 16792U 86046B   25324.08135524  .00000510  00000+0  56183-4 0  9995
2 16792  82.4825 183.7118 0021901 227.9268 132.0086 14.85452407110130
SL-14 R/B               
1 16882U 86055B   25324.22510410  .00000652  00000+0  72568-4 0  9994
2 16882  82.5219 229.5253 0018455 339.1051 135.8292 14.85497723103113
AJISAI (EGS)            
1 16908U 86061A   25324.26162517 -.00000113  00000+0 -10667-3 0  9990
2 16908  50.0099  69.8341 0011216   9.4006  80.3540 12.44514112454378
COSMOS 1812             
1 17295U 87003A   25324.01860885  .00073948  00000+0  59237-3 0  9993
2 17295  82.4866 316.5199 0005925 121.6254 238.5587 15.70763632127082
SL-14 R/B               
1 17567U 87024B   25324.15452325  .00000513  00000+0  55874-4 0  9991
2 17567  82.5293 195.6690 0016734 263.3640  96.5672 14.85992954 71861
COSMOS 1833             
1 17589U 87027A   25324.06458138 -.00000113  00000+0 -34604-4 0  9992
2 17589  70.9135 196.4443 0021568   3.6323 356.4951 14.13018430994827
SL-16 R/B               
1 17590U 87027B   25324.21518023 -.00000094  00000+0 -22769-4 0  9998
2 17590  71.0000 147.1812 0007258 282.9578  77.0735 14.17146931999877
SL-14 R/B               
1 17912U 87038B   25324.22799322  .00000603  00000+0  67345-4 0  9995
2 17912  82.5035  39.9007 0019795 162.2959 197.8951 14.85230641 62987
COSMOS 1844             
1 17973U 87041A   25324.21574839  .00000114  00000+0  84309-4 0  9995
2 17973  70.8994 265.0757 0031221 191.6484 168.3920 14.14526927988106
SL-14 R/B               
1 18153U 87055B   25324.29120658  .00000607  00000+0  67312-4 0  9997
2 18153  82.4984  92.1426 0021130  19.1728 341.0278 14.85486646 53694
COSMOS 1867             
1 18187U 87060A   25324.24686348 -.00000002  00000+0  36881-4 0  9995
2 18187  65.0102 253.1898 0013680 268.8656  91.0861 14.31481108  4275
COSMOS 1892             
1 18421U 87088A   25324.07094574  .00515909  12638-3  70086-3 0  9995
2 18421  82.4667  69.3104 0005927 271.8411  88.2191 16.06314132 87686
