CCSDS_OMM_VERS = 2.0
CREATION_DATE  = 
ORIGINATOR     = 

OBJECT_NAME    = SL-14 R/B
OBJECT_ID      = 1986-046B
CENTER_NAME    = EARTH
REF_FRAME      = TEME
TIME_SYSTEM    = UTC
MEAN_ELEMENT_THEORY = SGP/SGP4

EPOCH          = 2025-11-20T01:57:09.092736
MEAN_MOTION    = 14.85452407
ECCENTRICITY   = .00219017
INCLINATION    = 82.4825
RA_OF_ASC_NODE = 183.7118
ARG_OF_PERICENTER = 227.9268
MEAN_ANOMALY   = 132.0086

EPHEMERIS_TYPE = 0
CLASSIFICATION_TYPE = U
NORAD_CAT_ID   = 16792
ELEMENT_SET_NO = 999
REV_AT_EPOCH   = 11013
BSTAR          = .56182767E-4
MEAN_MOTION_DOT = .51E-5
MEAN_MOTION_DDOT = 0

CCSDS_OMM_VERS = 2.0
CREATION_DATE  = 
ORIGINATOR     = 

OBJECT_NAME    = SL-14 R/B
OBJECT_ID      = 1986-055B
CENTER_NAME    = EARTH
REF_FRAME      = TEME
TIME_SYSTEM    = UTC
MEAN_ELEMENT_THEORY = SGP/SGP4

EPOCH          = 2025-11-20T05:24:08.994240
MEAN_MOTION    = 14.85497723
ECCENTRICITY   = .00184552
INCLINATION    = 82.5219
RA_OF_ASC_NODE = 229.5253
ARG_OF_PERICENTER = 339.1051
MEAN_ANOMALY   = 135.8292

EPHEMERIS_TYPE = 0
CLASSIFICATION_TYPE = U
NORAD_CAT_ID   = 16882
ELEMENT_SET_NO = 999
REV_AT_EPOCH   = 10311
BSTAR          = .72567515E-4
MEAN_MOTION_DOT = .652E-5
MEAN_MOTION_DDOT = 0

CCSDS_OMM_VERS = 2.0
CREATION_DATE  = 
ORIGINATOR     = 

OBJECT_NAME    = AJISAI (EGS)
OBJECT_ID      = 1986-061A
CENTER_NAME    = EARTH
REF_FRAME      = TEME
TIME_SYSTEM    = UTC
MEAN_ELEMENT_THEORY = SGP/SGP4

EPOCH          = 2025-11-20T06:16:44.414688
MEAN_MOTION    = 12.44514112
ECCENTRICITY   = .00112161
INCLINATION    = 50.0099
RA_OF_ASC_NODE = 69.8341
ARG_OF_PERICENTER = 9.4006
MEAN_ANOMALY   = 80.3540

EPHEMERIS_TYPE = 0
CLASSIFICATION_TYPE = U
NORAD_CAT_ID   = 16908
ELEMENT_SET_NO = 999
REV_AT_EPOCH   = 45437
BSTAR          = -.10667035E-3
MEAN_MOTION_DOT = -.113E-5
MEAN_MOTION_DDOT = 0

CCSDS_OMM_VERS = 2.0
CREATION_DATE  = 
ORIGINATOR     = 

OBJECT_NAME    = COSMOS 1812
OBJECT_ID      = 1987-003A
CENTER_NAME    = EARTH
REF_FRAME      = TEME
TIME_SYSTEM    = UTC
MEAN_ELEMENT_THEORY = SGP/SGP4

EPOCH          = 2025-11-20T00:26:47.804640
MEAN_MOTION    = 15.70763632
ECCENTRICITY   = .00059257
INCLINATION    = 82.4866
RA_OF_ASC_NODE = 316.5199
ARG_OF_PERICENTER = 121.6254
MEAN_ANOMALY   = 238.5587

EPHEMERIS_TYPE = 0
CLASSIFICATION_TYPE = U
NORAD_CAT_ID   = 17295
ELEMENT_SET_NO = 999
REV_AT_EPOCH   = 12708
BSTAR          = .59237459E-3
MEAN_MOTION_DOT = .73948E-3
MEAN_MOTION_DDOT = 0

CCSDS_OMM_VERS = 2.0
CREATION_DATE  = 
ORIGINATOR     = 

OBJECT_NAME    = SL-14 R/B
OBJECT_ID      = 1987-024B
CENTER_NAME    = EARTH
REF_FRAME      = TEME
TIME_SYSTEM    = UTC
MEAN_ELEMENT_THEORY = SGP/SGP4

EPOCH          = 2025-11-20T03:42:30.808800
MEAN_MOTION    = 14.85992954
ECCENTRICITY   = .00167342
INCLINATION    = 82.5293
RA_OF_ASC_NODE = 195.6690
ARG_OF_PERICENTER = 263.3640
MEAN_ANOMALY   = 96.5672

EPHEMERIS_TYPE = 0
CLASSIFICATION_TYPE = U
NORAD_CAT_ID   = 17567
ELEMENT_SET_NO = 999
REV_AT_EPOCH   = 7186
BSTAR          = .55874042E-4
MEAN_MOTION_DOT = .513E-5
MEAN_MOTION_DDOT = 0

CCSDS_OMM_VERS = 2.0
CREATION_DATE  = 
ORIGINATOR     = 

OBJECT_NAME    = COSMOS 1833
OBJECT_ID      = 1987-027A
CENTER_NAME    = EARTH
REF_FRAME      = TEME
TIME_SYSTEM    = UTC
MEAN_ELEMENT_THEORY = SGP/SGP4

EPOCH          = 2025-11-20T01:32:59.831232
MEAN_MOTION    = 14.13018430
ECCENTRICITY   = .0021568
INCLINATION    = 70.9135
RA_OF_ASC_NODE = 196.4443
ARG_OF_PERICENTER = 3.6323
MEAN_ANOMALY   = 356.4951

EPHEMERIS_TYPE = 0
CLASSIFICATION_TYPE = U
NORAD_CAT_ID   = 17589
ELEMENT_SET_NO = 999
REV_AT_EPOCH   = 99482
BSTAR          = -.34604421E-4
MEAN_MOTION_DOT = -.113E-5
MEAN_MOTION_DDOT = 0

CCSDS_OMM_VERS = 2.0
CREATION_DATE  = 
ORIGINATOR     = 

OBJECT_NAME    = SL-16 R/B
OBJECT_ID      = 1987-027B
CENTER_NAME    = EARTH
REF_FRAME      = TEME
TIME_SYSTEM    = UTC
MEAN_ELEMENT_THEORY = SGP/SGP4

EPOCH          = 2025-11-20T05:09:51.571872
MEAN_MOTION    = 14.17146931
ECCENTRICITY   = .00072581
INCLINATION    = 71.0000
RA_OF_ASC_NODE = 147.1812
ARG_OF_PERICENTER = 282.9578
MEAN_ANOMALY   = 77.0735

EPHEMERIS_TYPE = 0
CLASSIFICATION_TYPE = U
NORAD_CAT_ID   = 17590
ELEMENT_SET_NO = 999
REV_AT_EPOCH   = 99987
BSTAR          = -.22769052E-4
MEAN_MOTION_DOT = -.94E-6
MEAN_MOTION_DDOT = 0

CCSDS_OMM_VERS = 2.0
CREATION_DATE  = 
ORIGINATOR     = 

OBJECT_NAME    = SL-14 R/B
OBJECT_ID      = 1987-038B
CENTER_NAME    = EARTH
REF_FRAME      = TEME
TIME_SYSTEM    = UTC
MEAN_ELEMENT_THEORY = SGP/SGP4

EPOCH          = 2025-11-20T05:28:18.614208
MEAN_MOTION    = 14.85230641
ECCENTRICITY   = .00197955
INCLINATION    = 82.5035
RA_OF_ASC_NODE = 39.9007
ARG_OF_PERICENTER = 162.2959
MEAN_ANOMALY   = 197.8951

EPHEMERIS_TYPE = 0
CLASSIFICATION_TYPE = U
NORAD_CAT_ID   = 17912
ELEMENT_SET_NO = 999
REV_AT_EPOCH   = 6298
BSTAR          = .6734527E-4
MEAN_MOTION_DOT = .603E-5
MEAN_MOTION_DDOT = 0

CCSDS_OMM_VERS = 2.0
CREATION_DATE  = 
ORIGINATOR     = 

OBJECT_NAME    = COSMOS 1844
OBJECT_ID      = 1987-041A
CENTER_NAME    = EARTH
REF_FRAME      = TEME
TIME_SYSTEM    = UTC
MEAN_ELEMENT_THEORY = SGP/SGP4

EPOCH          = 2025-11-20T05:10:40.660896
MEAN_MOTION    = 14.14526927
ECCENTRICITY   = .00312212
INCLINATION    = 70.8994
RA_OF_ASC_NODE = 265.0757
ARG_OF_PERICENTER = 191.6484
MEAN_ANOMALY   = 168.3920

EPHEMERIS_TYPE = 0
CLASSIFICATION_TYPE = U
NORAD_CAT_ID   = 17973
ELEMENT_SET_NO = 999
REV_AT_EPOCH   = 98810
BSTAR          = .84309143E-4
MEAN_MOTION_DOT = .114E-5
MEAN_MOTION_DDOT = 0

CCSDS_OMM_VERS = 2.0
CREATION_DATE  = 
ORIGINATOR     = 

OBJECT_NAME    = SL-14 R/B
OBJECT_ID      = 1987-055B
CENTER_NAME    = EARTH
REF_FRAME      = TEME
TIME_SYSTEM    = UTC
MEAN_ELEMENT_THEORY = SGP/SGP4

EPOCH          = 2025-11-20T06:59:20.248512
MEAN_MOTION    = 14.85486646
ECCENTRICITY   = .00211303
INCLINATION    = 82.4984
RA_OF_ASC_NODE = 92.1426
ARG_OF_PERICENTER = 19.1728
MEAN_ANOMALY   = 341.0278

EPHEMERIS_TYPE = 0
CLASSIFICATION_TYPE = U
NORAD_CAT_ID   = 18153
ELEMENT_SET_NO = 999
REV_AT_EPOCH   = 5369
BSTAR          = .67312314E-4
MEAN_MOTION_DOT = .607E-5
MEAN_MOTION_DDOT = 0

CCSDS_OMM_VERS = 2.0
CREATION_DATE  = 
ORIGINATOR     = 

OBJECT_NAME    = COSMOS 1867
OBJECT_ID      = 1987-060A
CENTER_NAME    = EARTH
REF_FRAME      = TEME
TIME_SYSTEM    = UTC
MEAN_ELEMENT_THEORY = SGP/SGP4

EPOCH          = 2025-11-20T05:55:29.004672
MEAN_MOTION    = 14.31481108
ECCENTRICITY   = .00136805
INCLINATION    = 65.0102
RA_OF_ASC_NODE = 253.1898
ARG_OF_PERICENTER = 268.8656
MEAN_ANOMALY   = 91.0861

EPHEMERIS_TYPE = 0
CLASSIFICATION_TYPE = U
NORAD_CAT_ID   = 18187
ELEMENT_SET_NO = 999
REV_AT_EPOCH   = 427
BSTAR          = .36880949E-4
MEAN_MOTION_DOT = -.2E-7
MEAN_MOTION_DDOT = 0

CCSDS_OMM_VERS = 2.0
CREATION_DATE  = 
ORIGINATOR     = 

OBJECT_NAME    = COSMOS 1892
OBJECT_ID      = 1987-088A
CENTER_NAME    = EARTH
REF_FRAME      = TEME
TIME_SYSTEM    = UTC
MEAN_ELEMENT_THEORY = SGP/SGP4

EPOCH          = 2025-11-20T01:42:09.711936
MEAN_MOTION    = 16.06314132
ECCENTRICITY   = .00059279
INCLINATION    = 82.4667
RA_OF_ASC_NODE = 69.3104
ARG_OF_PERICENTER = 271.8411
MEAN_ANOMALY   = 88.2191

EPHEMERIS_TYPE = 0
CLASSIFICATION_TYPE = U
NORAD_CAT_ID   = 18421
ELEMENT_SET_NO = 999
REV_AT_EPOCH   = 8768
BSTAR          = .70086164E-3
MEAN_MOTION_DOT = .515909E-2
MEAN_MOTION_DDOT = .12638294E-3

